[{"OBJECT_NAME":"TIANMU-1 10","OBJECT_ID":"2023-101D","EPOCH":"2026-03-09T23:06:46.939392","MEAN_MOTION":15.2921896,"ECCENTRICITY":0.00069292,"INCLINATION":97.2749,"RA_OF_ASC_NODE":122.1027,"ARG_OF_PERICENTER":133.6162,"MEAN_ANOMALY":226.5654,"EPHEMERIS_TYPE":0,"CLASSIFICATION_TYPE":"U","NORAD_CAT_ID":57402,"ELEMENT_SET_NO":999,"REV_AT_EPOCH":14647,"BSTAR":0.00032238884,"MEAN_MOTION_DOT":9.075e-5,"MEAN_MOTION_DDOT":0},{"OBJECT_NAME":"STARLINK-31318","OBJECT_ID":"2024-020K","EPOCH":"2026-03-09T20:49:09.692256","MEAN_MOTION":15.3019392,"ECCENTRICITY":6.3e-5,"INCLINATION":53.1595,"RA_OF_ASC_NODE":321.9176,"ARG_OF_PERICENTER":104.3902,"MEAN_ANOMALY":255.7169,"EPHEMERIS_TYPE":0,"CLASSIFICATION_TYPE":"U","NORAD_CAT_ID":58885,"ELEMENT_SET_NO":999,"REV_AT_EPOCH":11809,"BSTAR":-2.6829e-5,"MEAN_MOTION_DOT":-1.153e-5,"MEAN_MOTION_DDOT":0}]
